[{"OBJECT_NAME":"STARLINK-32172","OBJECT_ID":"2024-183K","EPOCH":"2026-03-09T11:51:18.217440","MEAN_MOTION":15.3018809,"ECCENTRICITY":0.00011252,"INCLINATION":53.1601,"RA_OF_ASC_NODE":143.2666,"ARG_OF_PERICENTER":87.2122,"MEAN_ANOMALY":272.9008,"EPHEMERIS_TYPE":0,"CLASSIFICATION_TYPE":"U","NORAD_CAT_ID":61518,"ELEMENT_SET_NO":999,"REV_AT_EPOCH":7962,"BSTAR":4.1759336e-5,"MEAN_MOTION_DOT":8.77e-6,"MEAN_MOTION_DDOT":0},{"OBJECT_NAME":"SCS-01 D","OBJECT_ID":"2025-100D","EPOCH":"2026-03-09T18:08:45.040704","MEAN_MOTION":15.31902149,"ECCENTRICITY":0.00063457,"INCLINATION":97.373,"RA_OF_ASC_NODE":145.4097,"ARG_OF_PERICENTER":266.2302,"MEAN_ANOMALY":93.8214,"EPHEMERIS_TYPE":0,"CLASSIFICATION_TYPE":"U","NORAD_CAT_ID":63985,"ELEMENT_SET_NO":999,"REV_AT_EPOCH":4562,"BSTAR":0.0010528181,"MEAN_MOTION_DOT":0.00032471,"MEAN_MOTION_DDOT":0}]
